[{"OBJECT_NAME":"LEGION 2","OBJECT_ID":"2024-081B","EPOCH":"2026-03-09T21:44:46.632192","MEAN_MOTION":15.16566591,"ECCENTRICITY":0.00102207,"INCLINATION":97.5068,"RA_OF_ASC_NODE":147.8786,"ARG_OF_PERICENTER":344.1701,"MEAN_ANOMALY":15.9211,"EPHEMERIS_TYPE":0,"CLASSIFICATION_TYPE":"U","NORAD_CAT_ID":59626,"ELEMENT_SET_NO":999,"REV_AT_EPOCH":10249,"BSTAR":0.00029733867,"MEAN_MOTION_DOT":5.743e-5,"MEAN_MOTION_DDOT":0},{"OBJECT_NAME":"FALCON 9 DEB","OBJECT_ID":"2021-041BL","EPOCH":"2026-03-09T15:17:24.182016","MEAN_MOTION":15.12006404,"ECCENTRICITY":0.0011978,"INCLINATION":53.0274,"RA_OF_ASC_NODE":188.0035,"ARG_OF_PERICENTER":181.8726,"MEAN_ANOMALY":178.2223,"EPHEMERIS_TYPE":0,"CLASSIFICATION_TYPE":"U","NORAD_CAT_ID":48837,"ELEMENT_SET_NO":999,"REV_AT_EPOCH":26181,"BSTAR":0.00029601,"MEAN_MOTION_DOT":4.852e-5,"MEAN_MOTION_DDOT":0}]
